CCSDS_OMM_VERS = 2.0
CREATION_DATE  = 
ORIGINATOR     = 

OBJECT_NAME    = ISS OBJECT YC
OBJECT_ID      = 1998-067YC
CENTER_NAME    = EARTH
REF_FRAME      = TEME
TIME_SYSTEM    = UTC
MEAN_ELEMENT_THEORY = SGP/SGP4

EPOCH          = 2026-02-09T21:16:34.703328
MEAN_MOTION    = 15.49776266
ECCENTRICITY   = .00077584
INCLINATION    = 51.6307
RA_OF_ASC_NODE = 209.7494
ARG_OF_PERICENTER = 69.9375
MEAN_ANOMALY   = 290.2448

EPHEMERIS_TYPE = 0
CLASSIFICATION_TYPE = U
NORAD_CAT_ID   = 67686
ELEMENT_SET_NO = 999
REV_AT_EPOCH   = 47
BSTAR          = .84454196E-3
MEAN_MOTION_DOT = .477E-3
MEAN_MOTION_DDOT = 0

CCSDS_OMM_VERS = 2.0
CREATION_DATE  = 
ORIGINATOR     = 

OBJECT_NAME    = LEOPARD
OBJECT_ID      = 1998-067YD
CENTER_NAME    = EARTH
REF_FRAME      = TEME
TIME_SYSTEM    = UTC
MEAN_ELEMENT_THEORY = SGP/SGP4

EPOCH          = 2026-02-09T21:17:02.945760
MEAN_MOTION    = 15.49634111
ECCENTRICITY   = .00079045
INCLINATION    = 51.6308
RA_OF_ASC_NODE = 209.7511
ARG_OF_PERICENTER = 71.0710
MEAN_ANOMALY   = 289.1135

EPHEMERIS_TYPE = 0
CLASSIFICATION_TYPE = U
NORAD_CAT_ID   = 67687
ELEMENT_SET_NO = 999
REV_AT_EPOCH   = 39
BSTAR          = .72497691E-3
MEAN_MOTION_DOT = .40641E-3
MEAN_MOTION_DDOT = 0

CCSDS_OMM_VERS = 2.0
CREATION_DATE  = 
ORIGINATOR     = 

OBJECT_NAME    = ISS OBJECT YE
OBJECT_ID      = 1998-067YE
CENTER_NAME    = EARTH
REF_FRAME      = TEME
TIME_SYSTEM    = UTC
MEAN_ELEMENT_THEORY = SGP/SGP4

EPOCH          = 2026-02-09T21:16:38.688096
MEAN_MOTION    = 15.49740553
ECCENTRICITY   = .00077736
INCLINATION    = 51.6309
RA_OF_ASC_NODE = 209.7496
ARG_OF_PERICENTER = 69.6595
MEAN_ANOMALY   = 290.5228

EPHEMERIS_TYPE = 0
CLASSIFICATION_TYPE = U
NORAD_CAT_ID   = 67688
ELEMENT_SET_NO = 999
REV_AT_EPOCH   = 39
BSTAR          = .83022177E-3
MEAN_MOTION_DOT = .46819E-3
MEAN_MOTION_DDOT = 0

CCSDS_OMM_VERS = 2.0
CREATION_DATE  = 
ORIGINATOR     = 

OBJECT_NAME    = PRC TEST SPACECRAFT 4
OBJECT_ID      = 2026-024A
CENTER_NAME    = EARTH
REF_FRAME      = TEME
TIME_SYSTEM    = UTC
MEAN_ELEMENT_THEORY = SGP/SGP4

EPOCH          = 2026-02-09T21:13:48.424800
MEAN_MOTION    = 15.31897115
ECCENTRICITY   = .01776526
INCLINATION    = 49.9883
RA_OF_ASC_NODE = 153.9450
ARG_OF_PERICENTER = 159.6192
MEAN_ANOMALY   = 201.1973

EPHEMERIS_TYPE = 0
CLASSIFICATION_TYPE = U
NORAD_CAT_ID   = 67689
ELEMENT_SET_NO = 999
REV_AT_EPOCH   = 42
BSTAR          = .13475451E-3
MEAN_MOTION_DOT = .6471E-4
MEAN_MOTION_DDOT = 0

CCSDS_OMM_VERS = 2.0
CREATION_DATE  = 
ORIGINATOR     = 

OBJECT_NAME    = CZ-2F R/B
OBJECT_ID      = 2026-024B
CENTER_NAME    = EARTH
REF_FRAME      = TEME
TIME_SYSTEM    = UTC
MEAN_ELEMENT_THEORY = SGP/SGP4

EPOCH          = 2026-02-09T18:04:37.386336
MEAN_MOTION    = 15.33080913
ECCENTRICITY   = .017874
INCLINATION    = 49.9890
RA_OF_ASC_NODE = 154.5891
ARG_OF_PERICENTER = 159.3290
MEAN_ANOMALY   = 201.5018

EPHEMERIS_TYPE = 0
CLASSIFICATION_TYPE = U
NORAD_CAT_ID   = 67690
ELEMENT_SET_NO = 999
REV_AT_EPOCH   = 40
BSTAR          = .19082E-3
MEAN_MOTION_DOT = .9918E-4
MEAN_MOTION_DDOT = 0

CCSDS_OMM_VERS = 2.0
CREATION_DATE  = 
ORIGINATOR     = 

OBJECT_NAME    = CZ-2F DEB
OBJECT_ID      = 2026-024C
CENTER_NAME    = EARTH
REF_FRAME      = TEME
TIME_SYSTEM    = UTC
MEAN_ELEMENT_THEORY = SGP/SGP4

EPOCH          = 2026-02-09T18:39:24.680736
MEAN_MOTION    = 15.58953928
ECCENTRICITY   = .02847379
INCLINATION    = 49.9061
RA_OF_ASC_NODE = 154.0414
ARG_OF_PERICENTER = 164.9294
MEAN_ANOMALY   = 196.0383

EPHEMERIS_TYPE = 0
CLASSIFICATION_TYPE = U
NORAD_CAT_ID   = 67691
ELEMENT_SET_NO = 999
REV_AT_EPOCH   = 41
BSTAR          = .31794089E-3
MEAN_MOTION_DOT = .21904E-2
MEAN_MOTION_DDOT = .10249358E-4

CCSDS_OMM_VERS = 2.0
CREATION_DATE  = 
ORIGINATOR     = 

OBJECT_NAME    = CZ-2F DEB
OBJECT_ID      = 2026-024D
CENTER_NAME    = EARTH
REF_FRAME      = TEME
TIME_SYSTEM    = UTC
MEAN_ELEMENT_THEORY = SGP/SGP4

EPOCH          = 2026-02-09T12:20:49.161696
MEAN_MOTION    = 15.62132248
ECCENTRICITY   = .03476599
INCLINATION    = 50.3761
RA_OF_ASC_NODE = 155.8636
ARG_OF_PERICENTER = 202.7642
MEAN_ANOMALY   = 155.7595

EPHEMERIS_TYPE = 0
CLASSIFICATION_TYPE = U
NORAD_CAT_ID   = 67692
ELEMENT_SET_NO = 999
REV_AT_EPOCH   = 36
BSTAR          = .16462978E-3
MEAN_MOTION_DOT = .1037071E-1
MEAN_MOTION_DDOT = .10166112E-4

CCSDS_OMM_VERS = 2.0
CREATION_DATE  = 
ORIGINATOR     = 

OBJECT_NAME    = CZ-2F DEB
OBJECT_ID      = 2026-024G
CENTER_NAME    = EARTH
REF_FRAME      = TEME
TIME_SYSTEM    = UTC
MEAN_ELEMENT_THEORY = SGP/SGP4

EPOCH          = 2026-02-09T13:23:37.087296
MEAN_MOTION    = 14.91513523
ECCENTRICITY   = .0356521
INCLINATION    = 49.8307
RA_OF_ASC_NODE = 156.3970
ARG_OF_PERICENTER = 155.6766
MEAN_ANOMALY   = 206.1473

EPHEMERIS_TYPE = 0
CLASSIFICATION_TYPE = U
NORAD_CAT_ID   = 67720
ELEMENT_SET_NO = 999
REV_AT_EPOCH   = 34
BSTAR          = .51552E-2
MEAN_MOTION_DOT = .189924E-2
MEAN_MOTION_DDOT = 0

